{
 "type": "FeatureCollection",
 "features": [
  {
   "type": "Feature",
   "id": "way/228747532",
   "properties": {
    "osm_id": "way/228747532",
    "kind": "building",
    "name": "Girls Hostel",
    "building": "dormitory",
    "levels": "5",
    "height": "",
    "area_m2": 1317
   },
   "geometry": {
    "type": "Polygon",
    "coordinates": [
     [
      [
       77.2730616,
       28.546737
      ],
      [
       77.273541,
       28.5466882
      ],
      [
       77.273542,
       28.5466712
      ],
      [
       77.2736,
       28.5466672
      ],
      [
       77.2737181,
       28.5470304
      ],
      [
       77.2736624,
       28.5470462
      ],
      [
       77.2736533,
       28.5470256
      ],
      [
       77.2732914,
       28.5471515
      ],
      [
       77.2732984,
       28.5471715
      ],
      [
       77.2731975,
       28.5472031
      ],
      [
       77.2731716,
       28.5471098
      ],
      [
       77.2732018,
       28.5471022
      ],
      [
       77.2731937,
       28.5470789
      ],
      [
       77.2736197,
       28.546947
      ],
      [
       77.2735637,
       28.5467767
      ],
      [
       77.2733744,
       28.546795
      ],
      [
       77.2733748,
       28.5468292
      ],
      [
       77.2733264,
       28.5468342
      ],
      [
       77.273318,
       28.5468173
      ],
      [
       77.2731153,
       28.546845
      ],
      [
       77.2731079,
       28.5468208
      ],
      [
       77.2730795,
       28.5468244
      ],
      [
       77.2730616,
       28.546737
      ]
     ]
    ]
   }
  },
  {
   "type": "Feature",
   "id": "way/228747533",
   "properties": {
    "osm_id": "way/228747533",
    "kind": "building",
    "name": "Student Center",
    "building": "university",
    "levels": "4",
    "height": "",
    "area_m2": 1312
   },
   "geometry": {
    "type": "Polygon",
    "coordinates": [
     [
      [
       77.2733755,
       28.5459864
      ],
      [
       77.2732795,
       28.5460148
      ],
      [
       77.2732741,
       28.5460007
      ],
      [
       77.2731252,
       28.5460447
      ],
      [
       77.2731471,
       28.5461018
      ],
      [
       77.273034,
       28.5461352
      ],
      [
       77.2731242,
       28.5463707
      ],
      [
       77.2732334,
       28.5463384
      ],
      [
       77.2732553,
       28.5463953
      ],
      [
       77.2734121,
       28.5463489
      ],
      [
       77.2734013,
       28.5463207
      ],
      [
       77.2734933,
       28.5462935
      ],
      [
       77.2733755,
       28.5459864
      ]
     ]
    ]
   }
  },
  {
   "type": "Feature",
   "id": "way/228772270",
   "properties": {
    "osm_id": "way/228772270",
    "kind": "building",
    "name": "Old Boys Hostel",
    "building": "dormitory",
    "levels": "6",
    "height": "",
    "area_m2": 1333
   },
   "geometry": {
    "type": "Polygon",
    "coordinates": [
     [
      [
       77.2735273,
       28.5477855
      ],
      [
       77.2735951,
       28.5477443
      ],
      [
       77.2735847,
       28.5477307
      ],
      [
       77.2739258,
       28.5475499
      ],
      [
       77.273936,
       28.5475626
      ],
      [
       77.2739914,
       28.5475322
      ],
      [
       77.2739541,
       28.5474857
      ],
      [
       77.2739709,
       28.5474748
      ],
      [
       77.2738054,
       28.5472424
      ],
      [
       77.2737827,
       28.5471947
      ],
      [
       77.2737239,
       28.5472134
      ],
      [
       77.2737303,
       28.5472278
      ],
      [
       77.2732374,
       28.5473927
      ],
      [
       77.2732789,
       28.54747
      ],
      [
       77.2733114,
       28.5474611
      ],
      [
       77.2733229,
       28.5474814
      ],
      [
       77.2737791,
       28.5473123
      ],
      [
       77.2738813,
       28.5474639
      ],
      [
       77.2737042,
       28.5475672
      ],
      [
       77.273687,
       28.5475474
      ],
      [
       77.2736502,
       28.5475671
      ],
      [
       77.2736677,
       28.5475914
      ],
      [
       77.2734646,
       28.547706
      ],
      [
       77.2735273,
       28.5477855
      ]
     ]
    ]
   }
  },
  {
   "type": "Feature",
   "id": "way/291875399",
   "properties": {
    "osm_id": "way/291875399",
    "kind": "building",
    "name": "",
    "building": "yes",
    "levels": "",
    "height": "",
    "area_m2": 398
   },
   "geometry": {
    "type": "Polygon",
    "coordinates": [
     [
      [
       77.2706526,
       28.5482708
      ],
      [
       77.2708748,
       28.5479467
      ],
      [
       77.2707918,
       28.5479028
      ],
      [
       77.2705696,
       28.5482269
      ],
      [
       77.2706526,
       28.5482708
      ]
     ]
    ]
   }
  },
  {
   "type": "Feature",
   "id": "way/291875400",
   "properties": {
    "osm_id": "way/291875400",
    "kind": "building",
    "name": "",
    "building": "yes",
    "levels": "",
    "height": "",
    "area_m2": 431
   },
   "geometry": {
    "type": "Polygon",
    "coordinates": [
     [
      [
       77.270814,
       28.5483032
      ],
      [
       77.2710022,
       28.5480248
      ],
      [
       77.2708967,
       28.5479698
      ],
      [
       77.2707086,
       28.5482482
      ],
      [
       77.270814,
       28.5483032
      ]
     ]
    ]
   }
  },
  {
   "type": "Feature",
   "id": "way/291875415",
   "properties": {
    "osm_id": "way/291875415",
    "kind": "building",
    "name": "",
    "building": "yes",
    "levels": "",
    "height": "",
    "area_m2": 876
   },
   "geometry": {
    "type": "Polygon",
    "coordinates": [
     [
      [
       77.2716206,
       28.5487581
      ],
      [
       77.2718357,
       28.5484632
      ],
      [
       77.2716418,
       28.5483541
      ],
      [
       77.2714267,
       28.5486491
      ],
      [
       77.2716206,
       28.5487581
      ]
     ]
    ]
   }
  },
  {
   "type": "Feature",
   "id": "way/291875421",
   "properties": {
    "osm_id": "way/291875421",
    "kind": "building",
    "name": "",
    "building": "yes",
    "levels": "",
    "height": "",
    "area_m2": 1322
   },
   "geometry": {
    "type": "Polygon",
    "coordinates": [
     [
      [
       77.2710721,
       28.5485
      ],
      [
       77.2713367,
       28.5481303
      ],
      [
       77.2711007,
       28.5479999
      ],
      [
       77.2708361,
       28.5483697
      ],
      [
       77.2710721,
       28.5485
      ]
     ]
    ]
   }
  },
  {
   "type": "Feature",
   "id": "way/291875435",
   "properties": {
    "osm_id": "way/291875435",
    "kind": "building",
    "name": "",
    "building": "yes",
    "levels": "",
    "height": "",
    "area_m2": 1083
   },
   "geometry": {
    "type": "Polygon",
    "coordinates": [
     [
      [
       77.2713886,
       28.5486313
      ],
      [
       77.2716333,
       28.5482868
      ],
      [
       77.271425,
       28.5481725
      ],
      [
       77.2711802,
       28.5485171
      ],
      [
       77.2713886,
       28.5486313
      ]
     ]
    ]
   }
  },
  {
   "type": "Feature",
   "id": "way/291875440",
   "properties": {
    "osm_id": "way/291875440",
    "kind": "building",
    "name": "",
    "building": "yes",
    "levels": "",
    "height": "",
    "area_m2": 2950
   },
   "geometry": {
    "type": "Polygon",
    "coordinates": [
     [
      [
       77.2702176,
       28.5481089
      ],
      [
       77.2704476,
       28.547765
      ],
      [
       77.2703148,
       28.5476964
      ],
      [
       77.2703644,
       28.5476223
      ],
      [
       77.2700302,
       28.5474498
      ],
      [
       77.2697413,
       28.5478816
      ],
      [
       77.2698598,
       28.5479428
      ],
      [
       77.2698351,
       28.5479797
      ],
      [
       77.2701285,
       28.5481312
      ],
      [
       77.2701625,
       28.5480805
      ],
      [
       77.2702176,
       28.5481089
      ]
     ]
    ]
   }
  },
  {
   "type": "Feature",
   "id": "way/291875442",
   "properties": {
    "osm_id": "way/291875442",
    "kind": "building",
    "name": "",
    "building": "yes",
    "levels": "",
    "height": "",
    "area_m2": 2262
   },
   "geometry": {
    "type": "Polygon",
    "coordinates": [
     [
      [
       77.269751,
       28.547815
      ],
      [
       77.2699924,
       28.5473956
      ],
      [
       77.2696276,
       28.547193
      ],
      [
       77.2693487,
       28.5476029
      ],
      [
       77.2694882,
       28.5476548
      ],
      [
       77.2695767,
       28.5477019
      ],
      [
       77.2696571,
       28.5477726
      ],
      [
       77.269684,
       28.5477537
      ],
      [
       77.2697162,
       28.5477938
      ],
      [
       77.269751,
       28.547815
      ]
     ]
    ]
   }
  },
  {
   "type": "Feature",
   "id": "way/352743999",
   "properties": {
    "osm_id": "way/352743999",
    "kind": "building",
    "name": "",
    "building": "yes",
    "levels": "",
    "height": "",
    "area_m2": 267
   },
   "geometry": {
    "type": "Polygon",
    "coordinates": [
     [
      [
       77.2716897,
       28.5405341
      ],
      [
       77.2717754,
       28.5405708
      ],
      [
       77.2717833,
       28.5405566
      ],
      [
       77.2718699,
       28.5405937
      ],
      [
       77.2719299,
       28.5404854
      ],
      [
       77.2717575,
       28.5404117
      ],
      [
       77.2716897,
       28.5405341
      ]
     ]
    ]
   }
  },
  {
   "type": "Feature",
   "id": "way/352744009",
   "properties": {
    "osm_id": "way/352744009",
    "kind": "building",
    "name": "",
    "building": "yes",
    "levels": "",
    "height": "",
    "area_m2": 299
   },
   "geometry": {
    "type": "Polygon",
    "coordinates": [
     [
      [
       77.2719718,
       28.5407227
      ],
      [
       77.2720898,
       28.5407772
      ],
      [
       77.2721909,
       28.5406082
      ],
      [
       77.2721395,
       28.5405845
      ],
      [
       77.2721482,
       28.5405698
      ],
      [
       77.2720672,
       28.5405324
      ],
      [
       77.2720416,
       28.5405752
      ],
      [
       77.272056,
       28.5405819
      ],
      [
       77.2719718,
       28.5407227
      ]
     ]
    ]
   }
  },
  {
   "type": "Feature",
   "id": "way/352781775",
   "properties": {
    "osm_id": "way/352781775",
    "kind": "building",
    "name": "",
    "building": "yes",
    "levels": "",
    "height": "",
    "area_m2": 258
   },
   "geometry": {
    "type": "Polygon",
    "coordinates": [
     [
      [
       77.27699,
       28.5445768
      ],
      [
       77.2771024,
       28.5445915
      ],
      [
       77.2771373,
       28.5443846
      ],
      [
       77.2770249,
       28.54437
      ],
      [
       77.27699,
       28.5445768
      ]
     ]
    ]
   }
  },
  {
   "type": "Feature",
   "id": "way/352781783",
   "properties": {
    "osm_id": "way/352781783",
    "kind": "building",
    "name": "",
    "building": "yes",
    "levels": "",
    "height": "",
    "area_m2": 487
   },
   "geometry": {
    "type": "Polygon",
    "coordinates": [
     [
      [
       77.2770389,
       28.5443271
      ],
      [
       77.2771549,
       28.5443402
      ],
      [
       77.2772107,
       28.5439602
      ],
      [
       77.2770947,
       28.543947
      ],
      [
       77.2770389,
       28.5443271
      ]
     ]
    ]
   }
  },
  {
   "type": "Feature",
   "id": "way/352781798",
   "properties": {
    "osm_id": "way/352781798",
    "kind": "building",
    "name": "",
    "building": "yes",
    "levels": "",
    "height": "",
    "area_m2": 107
   },
   "geometry": {
    "type": "Polygon",
    "coordinates": [
     [
      [
       77.2762663,
       28.5437651
      ],
      [
       77.2763555,
       28.543757
      ],
      [
       77.2763428,
       28.5436476
      ],
      [
       77.2762535,
       28.5436557
      ],
      [
       77.2762663,
       28.5437651
      ]
     ]
    ]
   }
  },
  {
   "type": "Feature",
   "id": "way/353154501",
   "properties": {
    "osm_id": "way/353154501",
    "kind": "building",
    "name": "",
    "building": "yes",
    "levels": "",
    "height": "",
    "area_m2": 501
   },
   "geometry": {
    "type": "Polygon",
    "coordinates": [
     [
      [
       77.2682363,
       28.5447759
      ],
      [
       77.2682624,
       28.5448634
      ],
      [
       77.2684081,
       28.5448298
      ],
      [
       77.2684866,
       28.5450927
      ],
      [
       77.2685735,
       28.5450726
      ],
      [
       77.2684689,
       28.5447223
      ],
      [
       77.2682363,
       28.5447759
      ]
     ]
    ]
   }
  },
  {
   "type": "Feature",
   "id": "way/383727936",
   "properties": {
    "osm_id": "way/383727936",
    "kind": "building",
    "name": "",
    "building": "residential",
    "levels": "",
    "height": "",
    "area_m2": 485
   },
   "geometry": {
    "type": "Polygon",
    "coordinates": [
     [
      [
       77.268703,
       28.5452026
      ],
      [
       77.268661,
       28.5450239
      ],
      [
       77.2689007,
       28.5449804
      ],
      [
       77.2689427,
       28.5451591
      ],
      [
       77.268703,
       28.5452026
      ]
     ]
    ]
   }
  },
  {
   "type": "Feature",
   "id": "way/672268149",
   "properties": {
    "osm_id": "way/672268149",
    "kind": "building",
    "name": "IIIT Delhi Research and Development Block",
    "building": "university",
    "levels": "7",
    "height": "",
    "area_m2": 2485
   },
   "geometry": {
    "type": "Polygon",
    "coordinates": [
     [
      [
       77.272337,
       28.5435291
      ],
      [
       77.2724053,
       28.5436989
      ],
      [
       77.2723045,
       28.5437302
      ],
      [
       77.2722984,
       28.5437152
      ],
      [
       77.2712773,
       28.5440322
      ],
      [
       77.2712861,
       28.5440539
      ],
      [
       77.2711714,
       28.5440896
      ],
      [
       77.2711005,
       28.5439135
      ],
      [
       77.2716157,
       28.5437535
      ],
      [
       77.2716001,
       28.5437148
      ],
      [
       77.2718144,
       28.5436483
      ],
      [
       77.2718298,
       28.5436865
      ],
      [
       77.272337,
       28.5435291
      ]
     ]
    ]
   }
  },
  {
   "type": "Feature",
   "id": "way/1061973882",
   "properties": {
    "osm_id": "way/1061973882",
    "kind": "building",
    "name": "IIIT Delhi Sports Block",
    "building": "yes",
    "levels": "3",
    "height": "",
    "area_m2": 1813
   },
   "geometry": {
    "type": "Polygon",
    "coordinates": [
     [
      [
       77.2722351,
       28.5475173
      ],
      [
       77.2722619,
       28.547605
      ],
      [
       77.2722872,
       28.5476156
      ],
      [
       77.2722918,
       28.5476332
      ],
      [
       77.2723873,
       28.5476877
      ],
      [
       77.2723735,
       28.5477094
      ],
      [
       77.2724351,
       28.5477425
      ],
      [
       77.2724699,
       28.5477317
      ],
      [
       77.2724865,
       28.5477437
      ],
      [
       77.2725112,
       28.5477374
      ],
      [
       77.2725166,
       28.5477534
      ],
      [
       77.2726398,
       28.5477107
      ],
      [
       77.272459,
       28.5471802
      ],
      [
       77.2722908,
       28.5472154
      ],
      [
       77.2721196,
       28.5474518
      ],
      [
       77.2722351,
       28.5475173
      ]
     ]
    ]
   }
  },
  {
   "type": "Feature",
   "id": "way/1062065612",
   "properties": {
    "osm_id": "way/1062065612",
    "kind": "building",
    "name": "New Boys Hostel",
    "building": "apartments",
    "levels": "10",
    "height": "",
    "area_m2": 1528
   },
   "geometry": {
    "type": "Polygon",
    "coordinates": [
     [
      [
       77.2741002,
       28.5476009
      ],
      [
       77.2741372,
       28.5476235
      ],
      [
       77.2741149,
       28.5476517
      ],
      [
       77.2742067,
       28.5477076
      ],
      [
       77.2739405,
       28.5480444
      ],
      [
       77.2741282,
       28.5481589
      ],
      [
       77.2741429,
       28.5481404
      ],
      [
       77.2742042,
       28.5481777
      ],
      [
       77.2741863,
       28.5482004
      ],
      [
       77.2743165,
       28.5482797
      ],
      [
       77.2743344,
       28.5482571
      ],
      [
       77.2743733,
       28.5482808
      ],
      [
       77.2743154,
       28.5483542
      ],
      [
       77.2743563,
       28.5483791
      ],
      [
       77.2743217,
       28.548423
      ],
      [
       77.2742585,
       28.5483846
      ],
      [
       77.2742653,
       28.548376
      ],
      [
       77.2738867,
       28.5481456
      ],
      [
       77.2738803,
       28.5481537
      ],
      [
       77.2738294,
       28.5481227
      ],
      [
       77.2738569,
       28.5480878
      ],
      [
       77.2737615,
       28.5480297
      ],
      [
       77.2741002,
       28.5476009
      ]
     ]
    ]
   }
  },
  {
   "type": "Feature",
   "id": "way/1074415656",
   "properties": {
    "osm_id": "way/1074415656",
    "kind": "building",
    "name": "Faculty house",
    "building": "yes",
    "levels": "",
    "height": "",
    "area_m2": 806
   },
   "geometry": {
    "type": "Polygon",
    "coordinates": [
     [
      [
       77.2700394,
       28.5443438
      ],
      [
       77.2700636,
       28.5443512
      ],
      [
       77.2700748,
       28.544323
      ],
      [
       77.2701571,
       28.5443483
      ],
      [
       77.270176,
       28.5443007
      ],
      [
       77.2702246,
       28.5443156
      ],
      [
       77.2702295,
       28.5443033
      ],
      [
       77.2702065,
       28.5442963
      ],
      [
       77.2702113,
       28.5442842
      ],
      [
       77.2701519,
       28.5442661
      ],
      [
       77.2701475,
       28.5442772
      ],
      [
       77.2700915,
       28.5442603
      ],
      [
       77.2701037,
       28.5442291
      ],
      [
       77.2700807,
       28.5442222
      ],
      [
       77.2701085,
       28.5441505
      ],
      [
       77.2702859,
       28.5442037
      ],
      [
       77.2702737,
       28.5442351
      ],
      [
       77.2702907,
       28.5442402
      ],
      [
       77.2702813,
       28.5442646
      ],
      [
       77.2702906,
       28.5442674
      ],
      [
       77.2703229,
       28.5441829
      ],
      [
       77.2703478,
       28.5441903
      ],
      [
       77.2703545,
       28.5441727
      ],
      [
       77.2704341,
       28.5441961
      ],
      [
       77.2703789,
       28.5443413
      ],
      [
       77.2703476,
       28.5443321
      ],
      [
       77.2703372,
       28.5443594
      ],
      [
       77.2703666,
       28.544368
      ],
      [
       77.2703043,
       28.544531
      ],
      [
       77.2702485,
       28.5445145
      ],
      [
       77.2702577,
       28.5444906
      ],
      [
       77.2702316,
       28.5444828
      ],
      [
       77.2702686,
       28.544387
      ],
      [
       77.2702286,
       28.544375
      ],
      [
       77.2702164,
       28.5444065
      ],
      [
       77.2701914,
       28.544399
      ],
      [
       77.2701737,
       28.5444444
      ],
      [
       77.2700271,
       28.5444003
      ],
      [
       77.2700431,
       28.5443593
      ],
      [
       77.2700344,
       28.5443566
      ],
      [
       77.2700394,
       28.5443438
      ]
     ]
    ]
   }
  },
  {
   "type": "Feature",
   "id": "way/1074415657",
   "properties": {
    "osm_id": "way/1074415657",
    "kind": "building",
    "name": "Old faculty house",
    "building": "yes",
    "levels": "",
    "height": "",
    "area_m2": 617
   },
   "geometry": {
    "type": "Polygon",
    "coordinates": [
     [
      [
       77.2705075,
       28.5441801
      ],
      [
       77.2705071,
       28.5440872
      ],
      [
       77.2706489,
       28.5440867
      ],
      [
       77.2706486,
       28.5440084
      ],
      [
       77.2708033,
       28.5440079
      ],
      [
       77.2708035,
       28.5440746
      ],
      [
       77.2709695,
       28.5440741
      ],
      [
       77.27097,
       28.5441737
      ],
      [
       77.2708099,
       28.5441743
      ],
      [
       77.27081,
       28.5442042
      ],
      [
       77.2707701,
       28.5442043
      ],
      [
       77.2707699,
       28.5441594
      ],
      [
       77.2706878,
       28.5441597
      ],
      [
       77.2706881,
       28.5442104
      ],
      [
       77.2706504,
       28.5442105
      ],
      [
       77.2706503,
       28.5441796
      ],
      [
       77.2705075,
       28.5441801
      ]
     ]
    ]
   }
  },
  {
   "type": "Feature",
   "id": "way/1292565172",
   "properties": {
    "osm_id": "way/1292565172",
    "kind": "building",
    "name": "IIIT Delhi Library",
    "building": "yes",
    "levels": "",
    "height": "",
    "area_m2": 594
   },
   "geometry": {
    "type": "Polygon",
    "coordinates": [
     [
      [
       77.2723267,
       28.5438184
      ],
      [
       77.2724999,
       28.5437745
      ],
      [
       77.2724883,
       28.543739
      ],
      [
       77.2725376,
       28.5437265
      ],
      [
       77.2726416,
       28.544043
      ],
      [
       77.2725811,
       28.5440583
      ],
      [
       77.2725732,
       28.5440344
      ],
      [
       77.2723997,
       28.5440785
      ],
      [
       77.2723771,
       28.5440099
      ],
      [
       77.2725242,
       28.5439726
      ],
      [
       77.2725123,
       28.5439365
      ],
      [
       77.2723724,
       28.543972
      ],
      [
       77.2723538,
       28.5439153
      ],
      [
       77.2725001,
       28.5438781
      ],
      [
       77.272486,
       28.5438354
      ],
      [
       77.2723441,
       28.5438714
      ],
      [
       77.2723267,
       28.5438184
      ]
     ]
    ]
   }
  },
  {
   "type": "Feature",
   "id": "way/1385562818",
   "properties": {
    "osm_id": "way/1385562818",
    "kind": "building",
    "name": "IIIT Delhi Academic Block",
    "building": "yes",
    "levels": "6",
    "height": "",
    "area_m2": 2647
   },
   "geometry": {
    "type": "Polygon",
    "coordinates": [
     [
      [
       77.2730793,
       28.5451137
      ],
      [
       77.2730592,
       28.5451197
      ],
      [
       77.273333,
       28.5457962
      ],
      [
       77.2731389,
       28.5458621
      ],
      [
       77.2731467,
       28.5458784
      ],
      [
       77.2730936,
       28.5458947
      ],
      [
       77.2730276,
       28.545725
      ],
      [
       77.2729713,
       28.5455929
      ],
      [
       77.2729642,
       28.5455224
      ],
      [
       77.2729762,
       28.5454399
      ],
      [
       77.2729802,
       28.545343
      ],
      [
       77.2729419,
       28.5452456
      ],
      [
       77.2728832,
       28.5451604
      ],
      [
       77.2728323,
       28.5451051
      ],
      [
       77.2727056,
       28.5448163
      ],
      [
       77.2727722,
       28.5447954
      ],
      [
       77.2727843,
       28.5448196
      ],
      [
       77.272936,
       28.5447792
      ],
      [
       77.2730793,
       28.5451137
      ]
     ]
    ]
   }
  },
  {
   "type": "Feature",
   "id": "way/1420184752",
   "properties": {
    "osm_id": "way/1420184752",
    "kind": "building",
    "name": "",
    "building": "yes",
    "levels": "6",
    "height": "",
    "area_m2": 541
   },
   "geometry": {
    "type": "Polygon",
    "coordinates": [
     [
      [
       77.2755311,
       28.5442014
      ],
      [
       77.2756581,
       28.544173
      ],
      [
       77.2756506,
       28.5441469
      ],
      [
       77.275682,
       28.5441425
      ],
      [
       77.2756726,
       28.5441225
      ],
      [
       77.2756975,
       28.5441171
      ],
      [
       77.2756906,
       28.5440927
      ],
      [
       77.2757095,
       28.5440886
      ],
      [
       77.275693,
       28.5440294
      ],
      [
       77.2756729,
       28.5439586
      ],
      [
       77.2756201,
       28.5439702
      ],
      [
       77.2756231,
       28.5439809
      ],
      [
       77.2754181,
       28.5440257
      ],
      [
       77.2754548,
       28.5441552
      ],
      [
       77.2754752,
       28.5442283
      ],
      [
       77.275535,
       28.5442154
      ],
      [
       77.2755311,
       28.5442014
      ]
     ]
    ]
   }
  },
  {
   "type": "Feature",
   "id": "way/1420294065",
   "properties": {
    "osm_id": "way/1420294065",
    "kind": "building",
    "name": "",
    "building": "yes",
    "levels": "",
    "height": "",
    "area_m2": 139
   },
   "geometry": {
    "type": "Polygon",
    "coordinates": [
     [
      [
       77.2741209,
       28.5433098
      ],
      [
       77.2742,
       28.5432021
      ],
      [
       77.274116,
       28.5431546
      ],
      [
       77.274037,
       28.5432623
      ],
      [
       77.2741209,
       28.5433098
      ]
     ]
    ]
   }
  },
  {
   "type": "Feature",
   "id": "way/1420294067",
   "properties": {
    "osm_id": "way/1420294067",
    "kind": "building",
    "name": "",
    "building": "school",
    "levels": "",
    "height": "",
    "area_m2": 634
   },
   "geometry": {
    "type": "Polygon",
    "coordinates": [
     [
      [
       77.2747152,
       28.5450331
      ],
      [
       77.27471,
       28.545111
      ],
      [
       77.2746053,
       28.5451057
      ],
      [
       77.2745808,
       28.5454799
      ],
      [
       77.2746855,
       28.5454852
      ],
      [
       77.2746806,
       28.5455608
      ],
      [
       77.2744961,
       28.5455515
      ],
      [
       77.2745307,
       28.5450238
      ],
      [
       77.2747152,
       28.5450331
      ]
     ]
    ]
   }
  },
  {
   "type": "Feature",
   "id": "way/1420294085",
   "properties": {
    "osm_id": "way/1420294085",
    "kind": "building",
    "name": "",
    "building": "yes",
    "levels": "",
    "height": "",
    "area_m2": 82
   },
   "geometry": {
    "type": "Polygon",
    "coordinates": [
     [
      [
       77.2735691,
       28.5434948
      ],
      [
       77.2736328,
       28.5434046
      ],
      [
       77.2735721,
       28.5433715
      ],
      [
       77.2735084,
       28.5434617
      ],
      [
       77.2735691,
       28.5434948
      ]
     ]
    ]
   }
  },
  {
   "type": "Feature",
   "id": "way/1420294086",
   "properties": {
    "osm_id": "way/1420294086",
    "kind": "building",
    "name": "",
    "building": "yes",
    "levels": "",
    "height": "",
    "area_m2": 152
   },
   "geometry": {
    "type": "Polygon",
    "coordinates": [
     [
      [
       77.27373,
       28.5436645
      ],
      [
       77.2738072,
       28.5436054
      ],
      [
       77.2737048,
       28.5435021
      ],
      [
       77.2736275,
       28.5435611
      ],
      [
       77.27373,
       28.5436645
      ]
     ]
    ]
   }
  },
  {
   "type": "Feature",
   "id": "way/1420294092",
   "properties": {
    "osm_id": "way/1420294092",
    "kind": "building",
    "name": "",
    "building": "yes",
    "levels": "",
    "height": "",
    "area_m2": 240
   },
   "geometry": {
    "type": "Polygon",
    "coordinates": [
     [
      [
       77.2740651,
       28.5431535
      ],
      [
       77.274134,
       28.5430922
      ],
      [
       77.2739514,
       28.5429336
      ],
      [
       77.2738825,
       28.5429949
      ],
      [
       77.2740651,
       28.5431535
      ]
     ]
    ]
   }
  },
  {
   "type": "Feature",
   "id": "way/1420294099",
   "properties": {
    "osm_id": "way/1420294099",
    "kind": "building",
    "name": "",
    "building": "yes",
    "levels": "",
    "height": "",
    "area_m2": 82
   },
   "geometry": {
    "type": "Polygon",
    "coordinates": [
     [
      [
       77.2738685,
       28.5443013
      ],
      [
       77.2738754,
       28.5443461
      ],
      [
       77.2739329,
       28.5443622
      ],
      [
       77.2739781,
       28.5443281
      ],
      [
       77.2739669,
       28.5442794
      ],
      [
       77.2739109,
       28.5442648
      ],
      [
       77.2738685,
       28.5443013
      ]
     ]
    ]
   }
  },
  {
   "type": "Feature",
   "id": "way/1424527436",
   "properties": {
    "osm_id": "way/1424527436",
    "kind": "building",
    "name": "",
    "building": "yes",
    "levels": "",
    "height": "",
    "area_m2": 1202
   },
   "geometry": {
    "type": "Polygon",
    "coordinates": [
     [
      [
       77.2744342,
       28.5408094
      ],
      [
       77.2743113,
       28.5410061
      ],
      [
       77.2747438,
       28.5412146
      ],
      [
       77.2748667,
       28.5410179
      ],
      [
       77.2744342,
       28.5408094
      ]
     ]
    ]
   }
  },
  {
   "type": "Feature",
   "id": "way/1424527437",
   "properties": {
    "osm_id": "way/1424527437",
    "kind": "building",
    "name": "",
    "building": "yes",
    "levels": "",
    "height": "",
    "area_m2": 642
   },
   "geometry": {
    "type": "Polygon",
    "coordinates": [
     [
      [
       77.2744998,
       28.5407044
      ],
      [
       77.2744342,
       28.5408094
      ],
      [
       77.2748667,
       28.5410179
      ],
      [
       77.2749323,
       28.5409129
      ],
      [
       77.2744998,
       28.5407044
      ]
     ]
    ]
   }
  },
  {
   "type": "Feature",
   "id": "way/1424527444",
   "properties": {
    "osm_id": "way/1424527444",
    "kind": "building",
    "name": "",
    "building": "yes",
    "levels": "",
    "height": "",
    "area_m2": 943
   },
   "geometry": {
    "type": "Polygon",
    "coordinates": [
     [
      [
       77.2749259,
       28.5411038
      ],
      [
       77.2748164,
       28.5412713
      ],
      [
       77.2752061,
       28.5414678
      ],
      [
       77.2753156,
       28.5413003
      ],
      [
       77.2749259,
       28.5411038
      ]
     ]
    ]
   }
  },
  {
   "type": "Feature",
   "id": "way/1424527445",
   "properties": {
    "osm_id": "way/1424527445",
    "kind": "building",
    "name": "",
    "building": "yes",
    "levels": "",
    "height": "",
    "area_m2": 463
   },
   "geometry": {
    "type": "Polygon",
    "coordinates": [
     [
      [
       77.2750573,
       28.5410154
      ],
      [
       77.274993,
       28.5411138
      ],
      [
       77.2753188,
       28.5412781
      ],
      [
       77.2753831,
       28.5411797
      ],
      [
       77.2750573,
       28.5410154
      ]
     ]
    ]
   }
  },
  {
   "type": "Feature",
   "id": "way/1424527930",
   "properties": {
    "osm_id": "way/1424527930",
    "kind": "building",
    "name": "",
    "building": "yes",
    "levels": "",
    "height": "",
    "area_m2": 1106
   },
   "geometry": {
    "type": "Polygon",
    "coordinates": [
     [
      [
       77.2743022,
       28.5416186
      ],
      [
       77.2739881,
       28.5414666
      ],
      [
       77.2738321,
       28.5417153
      ],
      [
       77.2741463,
       28.5418673
      ],
      [
       77.2743022,
       28.5416186
      ]
     ]
    ]
   }
  },
  {
   "type": "Feature",
   "id": "way/1424527931",
   "properties": {
    "osm_id": "way/1424527931",
    "kind": "building",
    "name": "",
    "building": "yes",
    "levels": "",
    "height": "",
    "area_m2": 482
   },
   "geometry": {
    "type": "Polygon",
    "coordinates": [
     [
      [
       77.2744381,
       28.5414018
      ],
      [
       77.2745061,
       28.5412934
      ],
      [
       77.2741919,
       28.5411415
      ],
      [
       77.274124,
       28.5412498
      ],
      [
       77.2744381,
       28.5414018
      ]
     ]
    ]
   }
  },
  {
   "type": "Feature",
   "id": "way/1424527932",
   "properties": {
    "osm_id": "way/1424527932",
    "kind": "building",
    "name": "",
    "building": "yes",
    "levels": "",
    "height": "",
    "area_m2": 482
   },
   "geometry": {
    "type": "Polygon",
    "coordinates": [
     [
      [
       77.2743702,
       28.5415102
      ],
      [
       77.2744381,
       28.5414018
      ],
      [
       77.274124,
       28.5412498
      ],
      [
       77.274056,
       28.5413582
      ],
      [
       77.2743702,
       28.5415102
      ]
     ]
    ]
   }
  },
  {
   "type": "Feature",
   "id": "way/1424527933",
   "properties": {
    "osm_id": "way/1424527933",
    "kind": "building",
    "name": "",
    "building": "yes",
    "levels": "",
    "height": "",
    "area_m2": 482
   },
   "geometry": {
    "type": "Polygon",
    "coordinates": [
     [
      [
       77.2743022,
       28.5416186
      ],
      [
       77.2743702,
       28.5415102
      ],
      [
       77.274056,
       28.5413582
      ],
      [
       77.2739881,
       28.5414666
      ],
      [
       77.2743022,
       28.5416186
      ]
     ]
    ]
   }
  },
  {
   "type": "Feature",
   "id": "way/1424527937",
   "properties": {
    "osm_id": "way/1424527937",
    "kind": "building",
    "name": "",
    "building": "yes",
    "levels": "",
    "height": "",
    "area_m2": 368
   },
   "geometry": {
    "type": "Polygon",
    "coordinates": [
     [
      [
       77.2759923,
       28.5415681
      ],
      [
       77.2758619,
       28.5415008
      ],
      [
       77.2758317,
       28.541546
      ],
      [
       77.2757294,
       28.541699
      ],
      [
       77.2758569,
       28.5417613
      ],
      [
       77.2759923,
       28.5415681
      ]
     ]
    ]
   }
  },
  {
   "type": "Feature",
   "id": "way/1424527938",
   "properties": {
    "osm_id": "way/1424527938",
    "kind": "building",
    "name": "",
    "building": "yes",
    "levels": "",
    "height": "",
    "area_m2": 302
   },
   "geometry": {
    "type": "Polygon",
    "coordinates": [
     [
      [
       77.2760966,
       28.5416245
      ],
      [
       77.2759923,
       28.5415681
      ],
      [
       77.2758569,
       28.5417613
      ],
      [
       77.2759612,
       28.5418177
      ],
      [
       77.2760966,
       28.5416245
      ]
     ]
    ]
   }
  },
  {
   "type": "Feature",
   "id": "way/1424527939",
   "properties": {
    "osm_id": "way/1424527939",
    "kind": "building",
    "name": "",
    "building": "yes",
    "levels": "",
    "height": "",
    "area_m2": 236
   },
   "geometry": {
    "type": "Polygon",
    "coordinates": [
     [
      [
       77.2758317,
       28.541546
      ],
      [
       77.2757219,
       28.5414919
      ],
      [
       77.2756253,
       28.5416498
      ],
      [
       77.2757294,
       28.541699
      ],
      [
       77.2758317,
       28.541546
      ]
     ]
    ]
   }
  },
  {
   "type": "Feature",
   "id": "way/1424527940",
   "properties": {
    "osm_id": "way/1424527940",
    "kind": "building",
    "name": "",
    "building": "yes",
    "levels": "",
    "height": "",
    "area_m2": 307
   },
   "geometry": {
    "type": "Polygon",
    "coordinates": [
     [
      [
       77.2755951,
       28.5416292
      ],
      [
       77.2756997,
       28.5414666
      ],
      [
       77.2755679,
       28.5414012
      ],
      [
       77.2754632,
       28.5415638
      ],
      [
       77.2755951,
       28.5416292
      ]
     ]
    ]
   }
  },
  {
   "type": "Feature",
   "id": "way/1424577108",
   "properties": {
    "osm_id": "way/1424577108",
    "kind": "building",
    "name": "Khatana Complex",
    "building": "yes",
    "levels": "5",
    "height": "",
    "area_m2": 436
   },
   "geometry": {
    "type": "Polygon",
    "coordinates": [
     [
      [
       77.2763252,
       28.5443633
      ],
      [
       77.2765596,
       28.5443945
      ],
      [
       77.2765621,
       28.5444412
      ],
      [
       77.2767071,
       28.5444568
      ],
      [
       77.2767299,
       28.5443355
      ],
      [
       77.276336,
       28.544276
      ],
      [
       77.2763252,
       28.5443633
      ]
     ]
    ]
   }
  },
  {
   "type": "Feature",
   "id": "way/1424598395",
   "properties": {
    "osm_id": "way/1424598395",
    "kind": "building",
    "name": "",
    "building": "yes",
    "levels": "",
    "height": "",
    "area_m2": 59
   },
   "geometry": {
    "type": "Polygon",
    "coordinates": [
     [
      [
       77.2768134,
       28.5447174
      ],
      [
       77.2768753,
       28.544806
      ],
      [
       77.2768018,
       28.5448178
      ],
      [
       77.2767761,
       28.5447278
      ],
      [
       77.2768134,
       28.5447174
      ]
     ]
    ]
   }
  },
  {
   "type": "Feature",
   "id": "way/1424773289",
   "properties": {
    "osm_id": "way/1424773289",
    "kind": "building",
    "name": "",
    "building": "house",
    "levels": "",
    "height": "",
    "area_m2": 66
   },
   "geometry": {
    "type": "Polygon",
    "coordinates": [
     [
      [
       77.276563,
       28.5446603
      ],
      [
       77.2765543,
       28.5446077
      ],
      [
       77.2766731,
       28.5446051
      ],
      [
       77.2766746,
       28.5446578
      ],
      [
       77.276563,
       28.5446603
      ]
     ]
    ]
   }
  },
  {
   "type": "Feature",
   "id": "way/1424773291",
   "properties": {
    "osm_id": "way/1424773291",
    "kind": "building",
    "name": "",
    "building": "yes",
    "levels": "",
    "height": "",
    "area_m2": 517
   },
   "geometry": {
    "type": "Polygon",
    "coordinates": [
     [
      [
       77.2771331,
       28.5449918
      ],
      [
       77.2772098,
       28.5449415
      ],
      [
       77.2768711,
       28.5445426
      ],
      [
       77.2767944,
       28.5445929
      ],
      [
       77.2771331,
       28.5449918
      ]
     ]
    ]
   }
  },
  {
   "type": "Feature",
   "id": "way/1425292733",
   "properties": {
    "osm_id": "way/1425292733",
    "kind": "building",
    "name": "",
    "building": "kiosk",
    "levels": "",
    "height": "",
    "area_m2": 60
   },
   "geometry": {
    "type": "Polygon",
    "coordinates": [
     [
      [
       77.2737006,
       28.547196
      ],
      [
       77.2736744,
       28.5471467
      ],
      [
       77.2737666,
       28.547109
      ],
      [
       77.2737927,
       28.5471583
      ],
      [
       77.2737006,
       28.547196
      ]
     ]
    ]
   }
  }
 ],
 "attribution": "(c) OpenStreetMap contributors, ODbL"
}